[{"OBJECT_NAME":"STARLINK-33752","OBJECT_ID":"2025-076M","EPOCH":"2026-03-09T09:25:21.960192","MEAN_MOTION":15.27551813,"ECCENTRICITY":7.772e-5,"INCLINATION":42.998,"RA_OF_ASC_NODE":323.4909,"ARG_OF_PERICENTER":69.1692,"MEAN_ANOMALY":290.9243,"EPHEMERIS_TYPE":0,"CLASSIFICATION_TYPE":"U","NORAD_CAT_ID":63580,"ELEMENT_SET_NO":999,"REV_AT_EPOCH":5178,"BSTAR":0.0016645556,"MEAN_MOTION_DOT":0.00045788,"MEAN_MOTION_DDOT":0},{"OBJECT_NAME":"TRANSPORTER-1 OBJECT Z","OBJECT_ID":"2021-006Z","EPOCH":"2026-03-09T22:55:57.522432","MEAN_MOTION":15.30965056,"ECCENTRICITY":0.00100878,"INCLINATION":97.2377,"RA_OF_ASC_NODE":113.4736,"ARG_OF_PERICENTER":179.6869,"MEAN_ANOMALY":180.438,"EPHEMERIS_TYPE":0,"CLASSIFICATION_TYPE":"U","NORAD_CAT_ID":47436,"ELEMENT_SET_NO":999,"REV_AT_EPOCH":28420,"BSTAR":0.00024088983,"MEAN_MOTION_DOT":7.143e-5,"MEAN_MOTION_DDOT":0}]
